COSMOS 2425 (716)       
1 29670U 06062A   19039.80436544  .00000018  00000-0  10000-3 0  9997
2 29670  65.1643 284.5339 0023276 347.6079 171.0083  2.13105593 94351
COSMOS 2426 (717)       
1 29671U 06062B   19039.61628610  .00000018  00000-0  10000-3 0  9994
2 29671  65.1821 284.6451 0016395 162.5753  65.8657  2.13103078 94356
COSMOS 2433 (720)       
1 32275U 07052A   19039.61708230 -.00000016  00000-0  10000-3 0  9994
2 32275  65.7974  45.4380 0005421 267.9126 297.4385  2.13104409 87869
COSMOS 2432 (719)       
1 32276U 07052B   19039.68713559 -.00000015  00000-0  10000-3 0  9991
2 32276  65.8098  45.5162 0012569 321.8578 248.5994  2.13103712 87868
COSMOS 2434 (721)       
1 32393U 07065A   19039.88832907  .00000020  00000-0  00000+0 0  9996
2 32393  64.7795 283.3953 0004063  83.4528 217.5390  2.13102936 86576
COSMOS 2436 (723)       
1 32395U 07065C   19039.82061164  .00000019  00000-0  10000-3 0  9994
2 32395  64.7887 283.4492 0017179   1.7580 298.9352  2.13104275 86504
COSMOS 2456 (730)       
1 36111U 09070A   19039.76779285  .00000037  00000-0  00000+0 0  9990
2 36111  64.1948 163.0155 0003242 335.7173  45.6525  2.13102789 71241
COSMOS 2457 (733)       
1 36112U 09070B   19040.17710200  .00000039  00000-0  00000+0 0  9992
2 36112  64.1767 162.9064 0006327 155.3589 305.7090  2.13101435 71257
COSMOS 2458 (734)       
1 36113U 09070C   19040.02822289  .00000038  00000-0  10000-3 0  9992
2 36113  64.1827 162.9253 0002858  47.7510 339.4222  2.13092356 71250
COSMOS 2459 (731)       
1 36400U 10007A   19039.53548245 -.00000017  00000-0  10000-3 0  9992
2 36400  65.7048  44.4729 0027326 345.3875  14.3376  2.13102151 69588
COSMOS 2461 (735)       
1 36401U 10007B   19039.60354831 -.00000017  00000-0  10000-3 0  9997
2 36401  65.6961  44.4439 0004631  45.7521 276.7278  2.13102051 69587
COSMOS 2460 (732)       
1 36402U 10007C   19040.07134228 -.00000014  00000-0  10000-3 0  9994
2 36402  65.6882  44.3934 0002729 282.3774  79.1612  2.13101513 69606
COSMOS 2464 (736)       
1 37139U 10041C   19040.25867330  .00000020  00000-0  00000+0 0  9998
2 37139  64.3811 283.0678 0026442  13.1152  79.2138  2.13100838 65673
COSMOS 2471 (701K)      
1 37372U 11009A   19040.51719006 -.00000012  00000-0  00000+0 0  9999
2 37372  65.6844  44.3226 0010073 240.2414 252.4445  2.13107524 61880
COSMOS 2474 (742)       
1 37829U 11055A   19040.44179280  .00000041  00000-0  00000+0 0  9994
2 37829  64.5165 163.8095 0007327 239.8991 155.5600  2.13101806 57253
COSMOS 2476 (744)       
1 37867U 11064A   19040.32598569  .00000041  00000-0  00000+0 0  9998
2 37867  64.4980 163.8696 0017431 237.2834 115.4305  2.13101858 56591
COSMOS 2477 (745)       
1 37868U 11064B   19039.64336674  .00000037  00000-0  00000+0 0  9994
2 37868  64.5062 163.9435 0015114 238.0527 129.7566  2.13101652 56544
COSMOS 2475 (743)       
1 37869U 11064C   19039.92618160  .00000039  00000-0  00000+0 0  9991
2 37869  64.5137 163.9309 0018997 264.8971 276.8543  2.13101860 56551
COSMOS 2485 (747)       
1 39155U 13019A   19039.86820122  .00000039  00000-0  00000+0 0  9999
2 39155  64.6666 164.0457 0017891 232.0670 174.2509  2.13101806 45067
COSMOS 2492 (754)       
1 39620U 14012A   19039.73228043 -.00000017  00000-0  10000-3 0  9992
2 39620  65.5769  44.2573 0016031 320.5110  16.5308  2.13103306 38001
COSMOS 2500 (755)       
1 40001U 14032A   19040.17309196 -.00000015  00000-0  00000+0 0  9991
2 40001  65.5198  44.1943 0007437 228.2065 308.7097  2.13102643 36232
COSMOS 2501 (702K)      
1 40315U 14075A   19039.61220572  .00000017  00000-0  00000+0 0  9994
2 40315  64.1037 284.2180 0014859 208.3173  57.4967  2.13098452 32627
COSMOS 2514 (751)       
1 41330U 16008A   19040.43225994 -.00000014  00000-0  00000+0 0  9993
2 41330  65.3209  44.1796 0011044 229.3105 327.8543  2.13103117 23401
COSMOS 2516 (753)       
1 41554U 16032A   19039.61353558  .00000018  00000-0  00000-0 0  9998
2 41554  64.3273 284.1497 0010728 221.0819 318.6886  2.13101779 20993
COSMOS 2522 (752)       
1 42939U 17055A   19040.03316005  .00000018  00000-0  00000+0 0  9995
2 42939  64.5560 284.1700 0006416 257.8746 110.2897  2.13101988 10768
